{
  "type": "FeatureCollection",
  "features": [
    {
      "type": "Feature",
      "properties": {
        "norad_id": 34425,
        "name": "COSMOS 2251 DEB",
        "group": "cosmos-2251-debris",
        "lat": 35.358944039413565,
        "lon": 39.91868545030554,
        "alt_km": 690.1278212814395,
        "timestamp": "2025-12-26T11:25:45.584855+00:00",
        "meta_object_name": "COSMOS 2251 DEB",
        "meta_object_id": "1993-036RS",
        "meta_epoch": "2025-12-26T03:02:59.608320",
        "meta_mean_motion": 14.62197584,
        "meta_eccentricity": 0.0024068,
        "meta_inclination": 74.0191,
        "meta_ra_of_asc_node": 28.8548,
        "meta_arg_of_pericenter": 151.4637,
        "meta_mean_anomaly": 208.7853,
        "meta_ephemeris_type": 0,
        "meta_classification_type": "U",
        "meta_norad_cat_id": 34425,
        "meta_element_set_no": 999,
        "meta_rev_at_epoch": 88936,
        "meta_bstar": 0.00050597,
        "meta_mean_motion_dot": 2.529e-05,
        "meta_mean_motion_ddot": 0,
        "tle_line1": "1 34425U 93036RS  25360.12707880  .00002529  00000+0  50597-3 0  9994",
        "tle_line2": "2 34425  74.0191  28.8548 0024068 151.4637 208.7853 14.62197584889368"
      },
      "geometry": {
        "type": "Point",
        "coordinates": [
          39.91868545030554,
          35.358944039413565
        ]
      }
    },
    {
      "type": "Feature",
      "properties": {
        "norad_id": 34429,
        "name": "COSMOS 2251 DEB",
        "group": "cosmos-2251-debris",
        "lat": -20.214041517626693,
        "lon": -35.91747517451262,
        "alt_km": 435.14040550624304,
        "timestamp": "2025-12-26T11:25:45.584864+00:00",
        "meta_object_name": "COSMOS 2251 DEB",
        "meta_object_id": "1993-036RW",
        "meta_epoch": "2025-12-25T19:41:46.493664",
        "meta_mean_motion": 15.47531411,
        "meta_eccentricity": 0.00141306,
        "meta_inclination": 73.9684,
        "meta_ra_of_asc_node": 139.4433,
        "meta_arg_of_pericenter": 342.6607,
        "meta_mean_anomaly": 167.4573,
        "meta_ephemeris_type": 0,
        "meta_classification_type": "U",
        "meta_norad_cat_id": 34429,
        "meta_element_set_no": 999,
        "meta_rev_at_epoch": 89650,
        "meta_bstar": 0.0054719201,
        "meta_mean_motion_dot": 0.00293252,
        "meta_mean_motion_ddot": 0,
        "tle_line1": "1 34429U 93036RW  25359.82067701  .00293252  00000+0  54719-2 0  9998",
        "tle_line2": "2 34429  73.9684 139.4433 0014130 342.6607 167.4573 15.47531411896508"
      },
      "geometry": {
        "type": "Point",
        "coordinates": [
          -35.91747517451262,
          -20.214041517626693
        ]
      }
    },
    {
      "type": "Feature",
      "properties": {
        "norad_id": 34430,
        "name": "COSMOS 2251 DEB",
        "group": "cosmos-2251-debris",
        "lat": 31.689066404626818,
        "lon": 87.84973421446756,
        "alt_km": 798.8401706084906,
        "timestamp": "2025-12-26T11:25:45.584873+00:00",
        "meta_object_name": "COSMOS 2251 DEB",
        "meta_object_id": "1993-036RX",
        "meta_epoch": "2025-12-26T02:24:41.067648",
        "meta_mean_motion": 14.39671247,
        "meta_eccentricity": 0.0060938,
        "meta_inclination": 74.0518,
        "meta_ra_of_asc_node": 278.7106,
        "meta_arg_of_pericenter": 345.2643,
        "meta_mean_anomaly": 14.6732,
        "meta_ephemeris_type": 0,
        "meta_classification_type": "U",
        "meta_norad_cat_id": 34430,
        "meta_element_set_no": 999,
        "meta_rev_at_epoch": 88147,
        "meta_bstar": 0.00044225,
        "meta_mean_motion_dot": 1.387e-05,
        "meta_mean_motion_ddot": 0,
        "tle_line1": "1 34430U 93036RX  25360.10047532  .00001387  00000+0  44225-3 0  9991",
        "tle_line2": "2 34430  74.0518 278.7106 0060938 345.2643  14.6732 14.39671247881470"
      },
      "geometry": {
        "type": "Point",
        "coordinates": [
          87.84973421446756,
          31.689066404626818
        ]
      }
    },
    {
      "type": "Feature",
      "properties": {
        "norad_id": 34431,
        "name": "COSMOS 2251 DEB",
        "group": "cosmos-2251-debris",
        "lat": -50.02623924145723,
        "lon": -9.751876170128458,
        "alt_km": 810.6571386768592,
        "timestamp": "2025-12-26T11:25:45.584882+00:00",
        "meta_object_name": "COSMOS 2251 DEB",
        "meta_object_id": "1993-036RY",
        "meta_epoch": "2025-12-25T20:54:23.497920",
        "meta_mean_motion": 14.2881916,
        "meta_eccentricity": 0.0067658,
        "meta_inclination": 74.0741,
        "meta_ra_of_asc_node": 151.4299,
        "meta_arg_of_pericenter": 133.6134,
        "meta_mean_anomaly": 227.0657,
        "meta_ephemeris_type": 0,
        "meta_classification_type": "U",
        "meta_norad_cat_id": 34431,
        "meta_element_set_no": 999,
        "meta_rev_at_epoch": 87330,
        "meta_bstar": 0.00072363,
        "meta_mean_motion_dot": 1.845e-05,
        "meta_mean_motion_ddot": 0,
        "tle_line1": "1 34431U 93036RY  25359.87110530  .00001845  00000+0  72363-3 0  9996",
        "tle_line2": "2 34431  74.0741 151.4299 0067658 133.6134 227.0657 14.28819160873304"
      },
      "geometry": {
        "type": "Point",
        "coordinates": [
          -9.751876170128458,
          -50.02623924145723
        ]
      }
    },
    {
      "type": "Feature",
      "properties": {
        "norad_id": 34432,
        "name": "COSMOS 2251 DEB",
        "group": "cosmos-2251-debris",
        "lat": 37.03370417986093,
        "lon": 90.76948254478924,
        "alt_km": 943.9289537374971,
        "timestamp": "2025-12-26T11:25:45.584891+00:00",
        "meta_object_name": "COSMOS 2251 DEB",
        "meta_object_id": "1993-036RZ",
        "meta_epoch": "2025-12-25T15:15:44.199072",
        "meta_mean_motion": 14.02958931,
        "meta_eccentricity": 0.0181292,
        "meta_inclination": 73.8285,
        "meta_ra_of_asc_node": 79.6035,
        "meta_arg_of_pericenter": 160.2499,
        "meta_mean_anomaly": 318.0811,
        "meta_ephemeris_type": 0,
        "meta_classification_type": "U",
        "meta_norad_cat_id": 34432,
        "meta_element_set_no": 999,
        "meta_rev_at_epoch": 85865,
        "meta_bstar": 0.0011474,
        "meta_mean_motion_dot": 2.034e-05,
        "meta_mean_motion_ddot": 0,
        "tle_line1": "1 34432U 93036RZ  25359.63592823  .00002034  00000+0  11474-2 0  9996",
        "tle_line2": "2 34432  73.8285  79.6035 0181292 160.2499 318.0811 14.02958931858651"
      },
      "geometry": {
        "type": "Point",
        "coordinates": [
          90.76948254478924,
          37.03370417986093
        ]
      }
    },
    {
      "type": "Feature",
      "properties": {
        "norad_id": 34433,
        "name": "COSMOS 2251 DEB",
        "group": "cosmos-2251-debris",
        "lat": -13.848410520845375,
        "lon": -45.33718619079996,
        "alt_km": 817.0051279346526,
        "timestamp": "2025-12-26T11:25:45.584900+00:00",
        "meta_object_name": "COSMOS 2251 DEB",
        "meta_object_id": "1993-036SA",
        "meta_epoch": "2025-12-25T19:12:11.035008",
        "meta_mean_motion": 14.12911954,
        "meta_eccentricity": 0.0152849,
        "meta_inclination": 74.01,
        "meta_ra_of_asc_node": 131.8065,
        "meta_arg_of_pericenter": 267.1359,
        "meta_mean_anomaly": 91.228,
        "meta_ephemeris_type": 0,
        "meta_classification_type": "U",
        "meta_norad_cat_id": 34433,
        "meta_element_set_no": 999,
        "meta_rev_at_epoch": 86134,
        "meta_bstar": 0.001379,
        "meta_mean_motion_dot": 2.843e-05,
        "meta_mean_motion_ddot": 0,
        "tle_line1": "1 34433U 93036SA  25359.80012772  .00002843  00000+0  13790-2 0  9997",
        "tle_line2": "2 34433  74.0100 131.8065 0152849 267.1359  91.2280 14.12911954861348"
      },
      "geometry": {
        "type": "Point",
        "coordinates": [
          -45.33718619079996,
          -13.848410520845375
        ]
      }
    },
    {
      "type": "Feature",
      "properties": {
        "norad_id": 34434,
        "name": "COSMOS 2251 DEB",
        "group": "cosmos-2251-debris",
        "lat": 24.098969368320148,
        "lon": -5.895945592678926,
        "alt_km": 941.7023927502842,
        "timestamp": "2025-12-26T11:25:45.584909+00:00",
        "meta_object_name": "COSMOS 2251 DEB",
        "meta_object_id": "1993-036SB",
        "meta_epoch": "2025-12-26T04:52:58.412640",
        "meta_mean_motion": 13.89887507,
        "meta_eccentricity": 0.0273415,
        "meta_inclination": 74.0626,
        "meta_ra_of_asc_node": 347.2247,
        "meta_arg_of_pericenter": 121.2413,
        "meta_mean_anomaly": 342.8149,
        "meta_ephemeris_type": 0,
        "meta_classification_type": "U",
        "meta_norad_cat_id": 34434,
        "meta_element_set_no": 999,
        "meta_rev_at_epoch": 84153,
        "meta_bstar": 0.0020442,
        "meta_mean_motion_dot": 3.379e-05,
        "meta_mean_motion_ddot": 0,
        "tle_line1": "1 34434U 93036SB  25360.20345385  .00003379  00000+0  20442-2 0  9990",
        "tle_line2": "2 34434  74.0626 347.2247 0273415 121.2413 342.8149 13.89887507841538"
      },
      "geometry": {
        "type": "Point",
        "coordinates": [
          -5.895945592678926,
          24.098969368320148
        ]
      }
    }
  ]
}